{"type": "FeatureCollection", "features": [ {"type": "Feature", "properties": {"norad_id": 34077, "name": "IRIDIUM 33 DEB", "group": "iridium-33-debris", "lat": -4.192304497965292, "lon": -133.36757255838123, "alt_km": 687.0304308375416, "timestamp": "2025-12-24T09:46:31.389071+00:00", "meta": {"OBJECT_NAME": "IRIDIUM 33 DEB", "OBJECT_ID": "1997-051CL", "EPOCH": "2025-12-24T04:17:25.302912", "MEAN_MOTION": 14.64970223, "ECCENTRICITY": 0.0008863, "INCLINATION": 86.3848, "RA_OF_ASC_NODE": 46.4676, "ARG_OF_PERICENTER": 1.8238, "MEAN_ANOMALY": 57.733, "EPHEMERIS_TYPE": 0, "CLASSIFICATION_TYPE": "U", "NORAD_CAT_ID": 34077, "ELEMENT_SET_NO": 999, "REV_AT_EPOCH": 88500, "BSTAR": 0.0014519, "MEAN_MOTION_DOT": 7.8e-05, "MEAN_MOTION_DDOT": 0}, "tle": {"line1": "1 34077U 97051CL  25358.17876508  .00007800  00000+0  14519-2 0  9994", "line2": "2 34077  86.3848  46.4676 0008863   1.8238  57.7330 14.64970223885004"}}, "geometry": {"type": "Point", "coordinates": [-133.36757255838123, -4.192304497965292]}}, {"type": "Feature", "properties": {"norad_id": 34079, "name": "IRIDIUM 33 DEB", "group": "iridium-33-debris", "lat": -62.97296000331162, "lon": -169.51168270277844, "alt_km": 624.1464546172538, "timestamp": "2025-12-24T09:46:31.389082+00:00", "meta": {"OBJECT_NAME": "IRIDIUM 33 DEB", "OBJECT_ID": "1997-051CN", "EPOCH": "2025-12-24T00:49:45.628032", "MEAN_MOTION": 14.83813263, "ECCENTRICITY": 0.0004202, "INCLINATION": 86.3774, "RA_OF_ASC_NODE": 3.5237, "ARG_OF_PERICENTER": 326.1883, "MEAN_ANOMALY": 87.1678, "EPHEMERIS_TYPE": 0, "CLASSIFICATION_TYPE": "U", "NORAD_CAT_ID": 34079, "ELEMENT_SET_NO": 999, "REV_AT_EPOCH": 89145, "BSTAR": 0.0018637, "MEAN_MOTION_DOT": 0.00015485, "MEAN_MOTION_DDOT": 0}, "tle": {"line1": "1 34079U 97051CN  25358.03455588  .00015485  00000+0  18637-2 0  9995", "line2": "2 34079  86.3774   3.5237 0004202 326.1883  87.1678 14.83813263891452"}}, "geometry": {"type": "Point", "coordinates": [-169.51168270277844, -62.97296000331162]}}, {"type": "Feature", "properties": {"norad_id": 34088, "name": "IRIDIUM 33 DEB", "group": "iridium-33-debris", "lat": -51.326728501328205, "lon": 20.828047007392655, "alt_km": 603.8501905788589, "timestamp": "2025-12-24T09:46:31.389093+00:00", "meta": {"OBJECT_NAME": "IRIDIUM 33 DEB", "OBJECT_ID": "1997-051CX", "EPOCH": "2025-12-24T03:52:26.243040", "MEAN_MOTION": 14.91875213, "ECCENTRICITY": 0.0006945, "INCLINATION": 86.3838, "RA_OF_ASC_NODE": 25.473, "ARG_OF_PERICENTER": 140.8902, "MEAN_ANOMALY": 287.9518, "EPHEMERIS_TYPE": 0, "CLASSIFICATION_TYPE": "U", "NORAD_CAT_ID": 34088, "ELEMENT_SET_NO": 999, "REV_AT_EPOCH": 88912, "BSTAR": 0.0023778, "MEAN_MOTION_DOT": 0.0002411, "MEAN_MOTION_DDOT": 0}, "tle": {"line1": "1 34088U 97051CX  25358.16141485  .00024110  00000+0  23778-2 0  9994", "line2": "2 34088  86.3838  25.4730 0006945 140.8902 287.9518 14.91875213889129"}}, "geometry": {"type": "Point", "coordinates": [20.828047007392655, -51.326728501328205]}}, {"type": "Feature", "properties": {"norad_id": 34091, "name": "IRIDIUM 33 DEB", "group": "iridium-33-debris", "lat": 79.61088169402561, "lon": -138.94019105680692, "alt_km": 634.7470789274757, "timestamp": "2025-12-24T09:46:31.389104+00:00", "meta": {"OBJECT_NAME": "IRIDIUM 33 DEB", "OBJECT_ID": "1997-051DA", "EPOCH": "2025-12-23T21:59:09.722400", "MEAN_MOTION": 14.82607708, "ECCENTRICITY": 0.0034182, "INCLINATION": 86.3412, "RA_OF_ASC_NODE": 61.7123, "ARG_OF_PERICENTER": 253.0965, "MEAN_ANOMALY": 106.6509, "EPHEMERIS_TYPE": 0, "CLASSIFICATION_TYPE": "U", "NORAD_CAT_ID": 34091, "ELEMENT_SET_NO": 999, "REV_AT_EPOCH": 88032, "BSTAR": 0.0046837, "MEAN_MOTION_DOT": 0.00038267, "MEAN_MOTION_DDOT": 0}, "tle": {"line1": "1 34091U 97051DA  25357.91608475  .00038267  00000+0  46837-2 0  9996", "line2": "2 34091  86.3412  61.7123 0034182 253.0965 106.6509 14.82607708880322"}}, "geometry": {"type": "Point", "coordinates": [-138.94019105680692, 79.61088169402561]}}, {"type": "Feature", "properties": {"norad_id": 34097, "name": "IRIDIUM 33 DEB", "group": "iridium-33-debris", "lat": 20.591754315527997, "lon": 174.82612069031043, "alt_km": 831.7528436083549, "timestamp": "2025-12-24T09:46:31.389114+00:00", "meta": {"OBJECT_NAME": "IRIDIUM 33 DEB", "OBJECT_ID": "1997-051DG", "EPOCH": "2025-12-24T00:39:48.600576", "MEAN_MOTION": 14.34864137, "ECCENTRICITY": 0.0081483, "INCLINATION": 86.2003, "RA_OF_ASC_NODE": 356.4244, "ARG_OF_PERICENTER": 325.2171, "MEAN_ANOMALY": 34.3712, "EPHEMERIS_TYPE": 0, "CLASSIFICATION_TYPE": "U", "NORAD_CAT_ID": 34097, "ELEMENT_SET_NO": 999, "REV_AT_EPOCH": 87281, "BSTAR": 0.0015313, "MEAN_MOTION_DOT": 4.532e-05, "MEAN_MOTION_DDOT": 0}, "tle": {"line1": "1 34097U 97051DG  25358.02764584  .00004532  00000+0  15313-2 0  9992", "line2": "2 34097  86.2003 356.4244 0081483 325.2171  34.3712 14.34864137872814"}}, "geometry": {"type": "Point", "coordinates": [174.82612069031043, 20.591754315527997]}}, {"type": "Feature", "properties": {"norad_id": 34145, "name": "IRIDIUM 33 DEB", "group": "iridium-33-debris", "lat": 23.095385638436905, "lon": -31.051346086252927, "alt_km": 717.1572211913681, "timestamp": "2025-12-24T09:46:31.389125+00:00", "meta": {"OBJECT_NAME": "IRIDIUM 33 DEB", "OBJECT_ID": "1997-051DY", "EPOCH": "2025-12-23T05:21:52.043328", "MEAN_MOTION": 14.4235986, "ECCENTRICITY": 0.00556029, "INCLINATION": 86.2126, "RA_OF_ASC_NODE": 327.8569, "ARG_OF_PERICENTER": 60.5255, "MEAN_ANOMALY": 300.1476, "EPHEMERIS_TYPE": 0, "CLASSIFICATION_TYPE": "U", "NORAD_CAT_ID": 34145, "ELEMENT_SET_NO": 999, "REV_AT_EPOCH": 87789, "BSTAR": 0.0011656692, "MEAN_MOTION_DOT": 3.943e-05, "MEAN_MOTION_DDOT": 0}, "tle": {"line1": "1 34145U 97051DY  25357.22351902  .00003943  00000+0  11657-2 0  9995", "line2": "2 34145  86.2126 327.8569 0055602  60.5255 300.1476 14.42359860877897"}}, "geometry": {"type": "Point", "coordinates": [-31.051346086252927, 23.095385638436905]}}, {"type": "Feature", "properties": {"norad_id": 34146, "name": "IRIDIUM 33 DEB", "group": "iridium-33-debris", "lat": -55.01520878360186, "lon": -20.683269123088277, "alt_km": 746.0671308970195, "timestamp": "2025-12-24T09:46:31.389136+00:00", "meta": {"OBJECT_NAME": "IRIDIUM 33 DEB", "OBJECT_ID": "1997-051DZ", "EPOCH": "2025-12-23T05:55:17.173920", "MEAN_MOTION": 14.49112641, "ECCENTRICITY": 0.00266651, "INCLINATION": 86.2838, "RA_OF_ASC_NODE": 345.1581, "ARG_OF_PERICENTER": 185.2875, "MEAN_ANOMALY": 188.6764, "EPHEMERIS_TYPE": 0, "CLASSIFICATION_TYPE": "U", "NORAD_CAT_ID": 34146, "ELEMENT_SET_NO": 999, "REV_AT_EPOCH": 88259, "BSTAR": 0.00083812732, "MEAN_MOTION_DOT": 3.219e-05, "MEAN_MOTION_DDOT": 0}, "tle": {"line1": "1 34146U 97051DZ  25357.24672655  .00003219  00000+0  83813-3 0  9999", "line2": "2 34146  86.2838 345.1581 0026665 185.2875 188.6764 14.49112641882598"}}, "geometry": {"type": "Point", "coordinates": [-20.683269123088277, -55.01520878360186]}}, {"type": "Feature", "properties": {"norad_id": 34159, "name": "IRIDIUM 33 DEB", "group": "iridium-33-debris", "lat": -63.8018368516822, "lon": 35.80858370796214, "alt_km": 758.5121296084208, "timestamp": "2025-12-24T09:46:31.389146+00:00", "meta": {"OBJECT_NAME": "IRIDIUM 33 DEB", "OBJECT_ID": "1997-051EN", "EPOCH": "2025-12-24T03:23:40.790112", "MEAN_MOTION": 14.38520476, "ECCENTRICITY": 0.002615, "INCLINATION": 86.3488, "RA_OF_ASC_NODE": 43.3787, "ARG_OF_PERICENTER": 247.4355, "MEAN_ANOMALY": 112.4075, "EPHEMERIS_TYPE": 0, "CLASSIFICATION_TYPE": "U", "NORAD_CAT_ID": 34159, "ELEMENT_SET_NO": 999, "REV_AT_EPOCH": 88123, "BSTAR": 0.00037198, "MEAN_MOTION_DOT": 1.16e-05, "MEAN_MOTION_DDOT": 0}, "tle": {"line1": "1 34159U 97051EN  25358.14144433  .00001160  00000+0  37198-3 0  9999", "line2": "2 34159  86.3488  43.3787 0026150 247.4355 112.4075 14.38520476881239"}}, "geometry": {"type": "Point", "coordinates": [35.80858370796214, -63.8018368516822]}}, {"type": "Feature", "properties": {"norad_id": 34350, "name": "IRIDIUM 33 DEB", "group": "iridium-33-debris", "lat": -73.40155499803035, "lon": -169.81219944479864, "alt_km": 763.143652118626, "timestamp": "2025-12-24T09:46:31.389157+00:00", "meta": {"OBJECT_NAME": "IRIDIUM 33 DEB", "OBJECT_ID": "1997-051ES", "EPOCH": "2025-12-24T00:32:43.401984", "MEAN_MOTION": 14.45412169, "ECCENTRICITY": 0.0023488, "INCLINATION": 86.3272, "RA_OF_ASC_NODE": 357.9107, "ARG_OF_PERICENTER": 100.6701, "MEAN_ANOMALY": 313.0828, "EPHEMERIS_TYPE": 0, "CLASSIFICATION_TYPE": "U", "NORAD_CAT_ID": 34350, "ELEMENT_SET_NO": 999, "REV_AT_EPOCH": 88456, "BSTAR": 0.00031816, "MEAN_MOTION_DOT": 1.143e-05, "MEAN_MOTION_DDOT": 0}, "tle": {"line1": "1 34350U 97051ES  25358.02272456  .00001143  00000+0  31816-3 0  9998", "line2": "2 34350  86.3272 357.9107 0023488 100.6701 313.0828 14.45412169884560"}}, "geometry": {"type": "Point", "coordinates": [-169.81219944479864, -73.40155499803035]}}, {"type": "Feature", "properties": {"norad_id": 34366, "name": "IRIDIUM 33 DEB", "group": "iridium-33-debris", "lat": -46.76667416890762, "lon": -131.88854523547673, "alt_km": 728.0099984086964, "timestamp": "2025-12-24T09:46:31.389167+00:00", "meta": {"OBJECT_NAME": "IRIDIUM 33 DEB", "OBJECT_ID": "1997-051FJ", "EPOCH": "2025-12-24T02:15:45.125856", "MEAN_MOTION": 14.54140712, "ECCENTRICITY": 0.0023025, "INCLINATION": 86.3684, "RA_OF_ASC_NODE": 44.3742, "ARG_OF_PERICENTER": 104.399, "MEAN_ANOMALY": 284.5234, "EPHEMERIS_TYPE": 0, "CLASSIFICATION_TYPE": "U", "NORAD_CAT_ID": 34366, "ELEMENT_SET_NO": 999, "REV_AT_EPOCH": 88347, "BSTAR": 0.000917, "MEAN_MOTION_DOT": 3.91e-05, "MEAN_MOTION_DDOT": 0}, "tle": {"line1": "1 34366U 97051FJ  25358.09427229  .00003910  00000+0  91700-3 0  9994", "line2": "2 34366  86.3684  44.3742 0023025 104.3990 284.5234 14.54140712883478"}}, "geometry": {"type": "Point", "coordinates": [-131.88854523547673, -46.76667416890762]}}]}